<?xml version='1.0' encoding='UTF-8'?>
<osm version='0.6' generator='JOSM'>
  <node id='-34600' action='modify' visible='true' lat='44.0732903617' lon='5.63879833004' />
  <node id='-34601' action='modify' visible='true' lat='44.06880091827' lon='5.63970348248' />
  <node id='-34602' action='modify' visible='true' lat='44.06877869024' lon='5.63948991825' />
  <node id='-34603' action='modify' visible='true' lat='44.07326813535' lon='5.63858476581' />
  <way id='-2740' action='modify' visible='true'>
    <nd ref='-34600' />
    <nd ref='-34601' />
    <nd ref='-34602' />
    <nd ref='-34603' />
    <nd ref='-34600' />
    <tag k='altitude_high' v='1135.38' />
    <tag k='altitude_low' v='1109.167' />
    <tag k='cell_size' v='2' />
    <tag k='profile' v='atanh' />
  </way>
</osm>
