<?xml version='1.0' encoding='UTF-8'?>
<osm version='0.6' generator='JOSM'>
  <node id='-35065' action='modify' visible='true' lat='44.84249466104' lon='5.96288490772' />
  <node id='-35066' action='modify' visible='true' lat='44.84215131877' lon='5.96297893418' />
  <node id='-35067' action='modify' visible='true' lat='44.84223978013' lon='5.96313431885' />
  <node id='-35068' action='modify' visible='true' lat='44.84230598567' lon='5.96316785449' />
  <node id='-35069' action='modify' visible='true' lat='44.84233806156' lon='5.96317555779' />
  <node id='-35070' action='modify' visible='true' lat='44.84241173512' lon='5.96315563923' />
  <node id='-35071' action='modify' visible='true' lat='44.84245150532' lon='5.96312149996' />
  <node id='-35072' action='modify' visible='true' lat='44.84248246432' lon='5.96304141686' />
  <node id='-35073' action='modify' visible='true' lat='44.84240131388' lon='5.96276333516' />
  <node id='-35074' action='modify' visible='true' lat='44.84225621957' lon='5.96275985107' />
  <node id='-35075' action='modify' visible='true' lat='44.84263492084' lon='5.96285997282' />
  <node id='-35076' action='modify' visible='true' lat='44.8441317743' lon='5.96296704877' />
  <node id='-35077' action='modify' visible='true' lat='44.84412259035' lon='5.96326389422' />
  <node id='-35078' action='modify' visible='true' lat='44.84255061508' lon='5.96329226981' />
  <node id='-35079' action='modify' visible='true' lat='44.8421715884' lon='5.96284165844' />
  <node id='-35080' action='modify' visible='true' lat='44.84218395026' lon='5.96307501063' />
  <node id='-35273' action='modify' visible='true' lat='44.84224195875' lon='5.96257209241' />
  <node id='-35274' action='modify' visible='true' lat='44.84152306513' lon='5.96096813142' />
  <node id='-35275' action='modify' visible='true' lat='44.84133668384' lon='5.96115052164' />
  <node id='-35276' action='modify' visible='true' lat='44.84202515051' lon='5.96263646543' />
  <node id='-35310' action='modify' visible='true' lat='44.84200612935' lon='5.96275180444' />
  <node id='-35311' action='modify' visible='true' lat='44.84115790938' lon='5.961347664' />
  <node id='-35312' action='modify' visible='true' lat='44.8407185783' lon='5.96249296725' />
  <node id='-35313' action='modify' visible='true' lat='44.84197855565' lon='5.962926144' />
  <way id='-3071' action='modify' visible='true'>
    <nd ref='-35074' />
    <nd ref='-35079' />
    <nd ref='-35066' />
    <nd ref='-35080' />
    <nd ref='-35067' />
    <nd ref='-35068' />
    <nd ref='-35069' />
    <nd ref='-35070' />
    <nd ref='-35071' />
    <nd ref='-35072' />
    <nd ref='-35065' />
    <nd ref='-35073' />
    <nd ref='-35074' />
    <tag k='altitude' v='1580' />
  </way>
  <way id='-3072' action='modify' visible='true'>
    <nd ref='-35075' />
    <nd ref='-35076' />
    <nd ref='-35077' />
    <nd ref='-35078' />
    <nd ref='-35075' />
    <tag k='altitude_high' v='1579' />
    <tag k='altitude_low' v='1554' />
    <tag k='profile' v='atanh' />
  </way>
  <way id='-3327' action='modify' visible='true'>
    <nd ref='-35273' />
    <nd ref='-35274' />
    <nd ref='-35275' />
    <nd ref='-35276' />
    <nd ref='-35273' />
    <tag k='altitude_high' v='1579' />
    <tag k='altitude_low' v='1556' />
    <tag k='profile' v='atanh' />
  </way>
  <way id='-3405' action='modify' visible='true'>
    <nd ref='-35310' />
    <nd ref='-35311' />
    <nd ref='-35312' />
    <nd ref='-35313' />
    <nd ref='-35310' />
    <tag k='altitude_high' v='1578' />
    <tag k='altitude_low' v='1554' />
    <tag k='profile' v='atanh' />
  </way>
</osm>
