<?xml version='1.0' encoding='UTF-8'?>
<osm version='0.6' generator='JOSM'>
  <node id='-34989' action='modify' visible='true' lat='44.45089244273' lon='5.72542567946' />
  <node id='-34990' action='modify' visible='true' lat='44.45069434246' lon='5.72526067946' />
  <node id='-34991' action='modify' visible='true' lat='44.45055364226' lon='5.72523657946' />
  <node id='-34992' action='modify' visible='true' lat='44.45038414202' lon='5.72505957946' />
  <node id='-34993' action='modify' visible='true' lat='44.45026354185' lon='5.72501937946' />
  <node id='-34994' action='modify' visible='true' lat='44.45016014171' lon='5.72517627946' />
  <node id='-34995' action='modify' visible='true' lat='44.45003954154' lon='5.72574347946' />
  <node id='-34996' action='modify' visible='true' lat='44.4500108415' lon='5.72634687946' />
  <node id='-34997' action='modify' visible='true' lat='44.45006824158' lon='5.72695037946' />
  <node id='-34998' action='modify' visible='true' lat='44.4501544417' lon='5.72717967946' />
  <node id='-34999' action='modify' visible='true' lat='44.45038134202' lon='5.72737677946' />
  <node id='-35000' action='modify' visible='true' lat='44.45055074226' lon='5.72753367946' />
  <node id='-35001' action='modify' visible='true' lat='44.45099014287' lon='5.72790377946' />
  <node id='-35002' action='modify' visible='true' lat='44.45135194338' lon='5.72819337946' />
  <node id='-35003' action='modify' visible='true' lat='44.45157884369' lon='5.72831817946' />
  <node id='-35004' action='modify' visible='true' lat='44.4518660441' lon='5.72848307946' />
  <node id='-35005' action='modify' visible='true' lat='44.45220194457' lon='5.72876867946' />
  <node id='-35006' action='modify' visible='true' lat='44.45239154483' lon='5.72907447946' />
  <node id='-35007' action='modify' visible='true' lat='44.45251504501' lon='5.72929567946' />
  <node id='-35008' action='modify' visible='true' lat='44.45273034531' lon='5.72956927946' />
  <node id='-35009' action='modify' visible='true' lat='44.45302044571' lon='5.72972617946' />
  <node id='-35010' action='modify' visible='true' lat='44.45330704611' lon='5.72979407946' />
  <node id='-35011' action='modify' visible='true' lat='44.45363314657' lon='5.72833937946' />
  <node id='-35012' action='modify' visible='true' lat='44.45412684726' lon='5.72821207946' />
  <node id='-35013' action='modify' visible='true' lat='44.45835575318' lon='5.72796007946' />
  <node id='-35014' action='modify' visible='true' lat='44.45909085421' lon='5.72788767946' />
  <node id='-35015' action='modify' visible='true' lat='44.46014175568' lon='5.72796817946' />
  <node id='-35016' action='modify' visible='true' lat='44.46018195574' lon='5.72659627946' />
  <node id='-35017' action='modify' visible='true' lat='44.45982875524' lon='5.72656417946' />
  <node id='-35018' action='modify' visible='true' lat='44.45982695524' lon='5.72649877946' />
  <node id='-35019' action='modify' visible='true' lat='44.45982295524' lon='5.72635897946' />
  <node id='-35020' action='modify' visible='true' lat='44.45922005439' lon='5.72618997946' />
  <node id='-35021' action='modify' visible='true' lat='44.45849645338' lon='5.72613367946' />
  <node id='-35022' action='modify' visible='true' lat='44.45826095305' lon='5.72614977946' />
  <node id='-35023' action='modify' visible='true' lat='44.45789915254' lon='5.72633887946' />
  <node id='-35024' action='modify' visible='true' lat='44.45780155241' lon='5.72643537946' />
  <node id='-35025' action='modify' visible='true' lat='44.45733065175' lon='5.72656817946' />
  <node id='-35026' action='modify' visible='true' lat='44.4570147513' lon='5.72660437946' />
  <node id='-35027' action='modify' visible='true' lat='44.45639165043' lon='5.72652387946' />
  <node id='-35028' action='modify' visible='true' lat='44.45604994995' lon='5.72642737946' />
  <node id='-35029' action='modify' visible='true' lat='44.45582304964' lon='5.72640317946' />
  <node id='-35030' action='modify' visible='true' lat='44.45556754928' lon='5.72639917946' />
  <node id='-35031' action='modify' visible='true' lat='44.45532634894' lon='5.72629057946' />
  <node id='-35032' action='modify' visible='true' lat='44.45520854878' lon='5.72624637946' />
  <node id='-35033' action='modify' visible='true' lat='44.45490424835' lon='5.72635897946' />
  <node id='-35034' action='modify' visible='true' lat='44.45468304804' lon='5.72641527946' />
  <node id='-35035' action='modify' visible='true' lat='44.4542236474' lon='5.72641927946' />
  <node id='-35036' action='modify' visible='true' lat='44.45368954665' lon='5.72626647946' />
  <node id='-35037' action='modify' visible='true' lat='44.45340234625' lon='5.72618997946' />
  <node id='-35038' action='modify' visible='true' lat='44.45319554596' lon='5.72627847946' />
  <node id='-35039' action='modify' visible='true' lat='44.4529428456' lon='5.72632277946' />
  <node id='-35040' action='modify' visible='true' lat='44.45261834515' lon='5.72619807946' />
  <node id='-35041' action='modify' visible='true' lat='44.45222204459' lon='5.72611757946' />
  <node id='-35042' action='modify' visible='true' lat='44.45192054417' lon='5.72603717946' />
  <node id='-35043' action='modify' visible='true' lat='44.45148984357' lon='5.72585607946' />
  <node id='-35044' action='modify' visible='true' lat='44.45105334296' lon='5.72555037946' />
  <way id='-3130' action='modify' visible='true'>
    <nd ref='-34989' />
    <nd ref='-34990' />
    <nd ref='-34991' />
    <nd ref='-34992' />
    <nd ref='-34993' />
    <nd ref='-34994' />
    <nd ref='-34995' />
    <nd ref='-34996' />
    <nd ref='-34997' />
    <nd ref='-34998' />
    <nd ref='-34999' />
    <nd ref='-35000' />
    <nd ref='-35001' />
    <nd ref='-35002' />
    <nd ref='-35003' />
    <nd ref='-35004' />
    <nd ref='-35005' />
    <nd ref='-35006' />
    <nd ref='-35007' />
    <nd ref='-35008' />
    <nd ref='-35009' />
    <nd ref='-35010' />
    <nd ref='-35011' />
    <nd ref='-35012' />
    <nd ref='-35013' />
    <nd ref='-35014' />
    <nd ref='-35015' />
    <nd ref='-35016' />
    <nd ref='-35017' />
    <nd ref='-35018' />
    <nd ref='-35019' />
    <nd ref='-35020' />
    <nd ref='-35021' />
    <nd ref='-35022' />
    <nd ref='-35023' />
    <nd ref='-35024' />
    <nd ref='-35025' />
    <nd ref='-35026' />
    <nd ref='-35027' />
    <nd ref='-35028' />
    <nd ref='-35029' />
    <nd ref='-35030' />
    <nd ref='-35031' />
    <nd ref='-35032' />
    <nd ref='-35033' />
    <nd ref='-35034' />
    <nd ref='-35035' />
    <nd ref='-35036' />
    <nd ref='-35037' />
    <nd ref='-35038' />
    <nd ref='-35039' />
    <nd ref='-35040' />
    <nd ref='-35041' />
    <nd ref='-35042' />
    <nd ref='-35043' />
    <nd ref='-35044' />
    <nd ref='-34989' />
    <tag k='altitude' v='705' />
  </way>
</osm>
